GLOBALSTAR M057         
1 25943U 99058A   25140.53111662 -.00000067  00000+0  23323-3 0  9990
2 25943  51.9994  66.6897 0002759 331.8280  28.2420 12.24819621163545
GLOBALSTAR M059         
1 25944U 99058B   25140.43081522 -.00000129  00000+0 -53101-3 0  9998
2 25944  52.0022 282.2629 0000665 174.6356 221.8073 11.99978640570714
GLOBALSTAR M056         
1 25945U 99058C   25140.54232406 -.00000002  00000+0  99591-3 0  9992
2 25945  51.9971 284.6299 0001836 124.0516 277.6549 12.04779151159299
GLOBALSTAR M031         
1 25946U 99058D   25140.56001757 -.00000160  00000+0 -70678-3 0  9999
2 25946  51.9932 178.5680 0001410 132.0904 347.9092 12.16035876161187
GLOBALSTAR M039         
1 25961U 99062A   25140.53106483 -.00000072  00000+0  17677-3 0  9991
2 25961  51.9867 352.9523 0001889 295.6344  64.4328 12.62326063176720
GLOBALSTAR M034         
1 25962U 99062B   25140.60097604 -.00000060  00000+0  32585-3 0  9996
2 25962  51.9870  83.0925 0014515 349.6442 180.7862 11.79448245135131
GLOBALSTAR M029         
1 25963U 99062C   25140.54095294 -.00000078  00000+0  96232-4 0  9992
2 25963  51.9773 170.0259 0002320  65.1996  55.5754 11.99896964165809
GLOBALSTAR M061         
1 25964U 99062D   25140.59082367 -.00000075  00000+0  81321-4 0  9995
2 25964  51.9797 266.7914 0005514 267.6854 105.9834 11.76775334117939
